norad_id,name,regime,epoch,line1,line2,inclination,eccentricity,mean_motion,raan,arg_pericenter,mean_anomaly
20083,RADUGA 1-1,EGO,23282.48443604,1 20083U 89048A   23282.48443604 -.00000070  00000-0  00000-0 0    14,2 20083  13.7534 341.9816 0022513 130.7422 359.0238  0.98707651121582,13.7534,0.0022513,0.98707651,341.9816,130.7422,359.0238
20083,RADUGA 1-1,EGO,23283.09701977,1 20083U 89048A   23283.09701977 -.00000055  00000-0  00000+0 0  1048,2 20083  13.7527 341.9772 0022501 130.7722 216.6803  0.98707501121585,13.7527,0.0022501,0.98707501,341.9772,130.7722,216.6803
20083,RADUGA 1-1,EGO,23283.20492361,1 20083U 89048A   23283.20492361 -.00000052  00000-0  00000-0 0    19,2 20083  13.7526 341.9764 0022497 130.7819 255.0151  0.98707478121593,13.7526,0.0022497,0.98707478,341.9764,130.7819,255.0151
20083,RADUGA 1-1,EGO,23284.28828274,1 20083U 89048A   23284.28828274 -.00000028  00000-0  00000-0 0    17,2 20083  13.7515 341.9686 0022470 130.8439 279.9326  0.98707262121606,13.7515,0.002247,0.98707262,341.9686,130.8439,279.9326
20083,RADUGA 1-1,EGO,23285.16485105,1 20083U 89048A   23285.16485105 -.00000011  00000-0  00000+0 0  1053,2 20083  13.7506 341.9624 0022434 130.8843 231.3865  0.98707140121602,13.7506,0.0022434,0.9870714,341.9624,130.8843,231.3865
20083,RADUGA 1-1,EGO,23285.58032701,1 20083U 89048A   23285.58032701 -.00000004  00000-0  00000-0 0    17,2 20083  13.7501 341.9594 0022404 130.8982  19.0145  0.98707096121617,13.7501,0.0022404,0.98707096,341.9594,130.8982,19.0145
20083,RADUGA 1-1,EGO,23286.57310519,1 20083U 89048A   23286.57310519  .00000012  00000-0  00000-0 0    11,2 20083  13.7491 341.9524 0022368 130.9441  11.7586  0.98707050121627,13.7491,0.0022368,0.9870705,341.9524,130.9441,11.7586
20083,RADUGA 1-1,EGO,23286.64581814,1 20083U 89048A   23286.64581814  .00000013  00000-0  00000-0 0    18,2 20083  13.7491 341.9519 0022365 130.9469  37.5947  0.98707047121621,13.7491,0.0022365,0.98707047,341.9519,130.9469,37.5947
20083,RADUGA 1-1,EGO,23287.21837953,1 20083U 89048A   23287.21837953  .00000019  00000-0  00000+0 0  1061,2 20083  13.7485 341.9478 0022343 130.9684 241.0360  0.98707047121624,13.7485,0.0022343,0.98707047,341.9478,130.9684,241.036
20083,RADUGA 1-1,EGO,23287.61389453,1 20083U 89048A   23287.61389453  .00000023  00000-0  00000-0 0    12,2 20083  13.7481 341.9450 0022329 130.9748  21.5783  0.98707061121632,13.7481,0.0022329,0.98707061,341.945,130.9748,21.5783
20083,RADUGA 1-1,EGO,23288.21515841,1 20083U 89048A   23288.21515841  .00000028  00000-0  00000-0 0    16,2 20083  13.7475 341.9407 0022293 131.0054 235.2109  0.98707118121649,13.7475,0.0022293,0.98707118,341.9407,131.0054,235.2109
20083,RADUGA 1-1,EGO,23288.65609347,1 20083U 89048A   23288.65609347  .00000030  00000-0  00000-0 0    12,2 20083  13.7470 341.9375 0022295 131.0201  31.8855  0.98707169121648,13.747,0.0022295,0.98707169,341.9375,131.0201,31.8855
20083,RADUGA 1-1,EGO,23289.29101814,1 20083U 89048A   23289.29101814  .00000031  00000-0  00000-0 0    10,2 20083  13.7463 341.9329 0022257 131.0434 257.4880  0.98707288121652,13.7463,0.0022257,0.98707288,341.9329,131.0434,257.488
20083,RADUGA 1-1,EGO,23290.63083498,1 20083U 89048A   23290.63083498  .00000027  00000-0  00000-0 0    12,2 20083  13.7449 341.9232 0022206 131.0418  13.6040  0.98707576121666,13.7449,0.0022206,0.98707576,341.9232,131.0418,13.604
20083,RADUGA 1-1,EGO,23291.22043380,1 20083U 89048A   23291.22043380  .00000022  00000-0  00000-0 0    19,2 20083  13.7442 341.9189 0022182 131.0632 223.1016  0.98707739121663,13.7442,0.0022182,0.98707739,341.9189,131.0632,223.1016
20083,RADUGA 1-1,EGO,23291.65668182,1 20083U 89048A   23291.65668182  .00000017  00000-0  00000-0 0    13,2 20083  13.7438 341.9157 0022174 131.0460  18.1441  0.98707880121675,13.7438,0.0022174,0.9870788,341.9157,131.046,18.1441
20083,RADUGA 1-1,EGO,23292.31803687,1 20083U 89048A   23292.31803687  .00000007  00000-0  00000-0 0    17,2 20083  13.7431 341.9108 0022159 131.0784 253.1310  0.98708107121686,13.7431,0.0022159,0.98708107,341.9108,131.0784,253.131
20083,RADUGA 1-1,EGO,23293.24360439,1 20083U 89048A   23293.24360439 -.00000010  00000-0  00000-0 0    18,2 20083  13.7421 341.9040 0022134 131.0759 222.0440  0.98708438121681,13.7421,0.0022134,0.98708438,341.904,131.0759,222.044
20083,RADUGA 1-1,EGO,23293.30094646,1 20083U 89048A   23293.30094646 -.00000012  00000-0  00000-0 0    11,2 20083  13.7421 341.9036 0022140 131.0854 242.4114  0.98708454121692,13.7421,0.002214,0.98708454,341.9036,131.0854,242.4114
20083,RADUGA 1-1,EGO,23294.31694529,1 20083U 89048A   23294.31694529 -.00000036  00000-0  00000-0 0    15,2 20083  13.7410 341.8961 0022124 131.0764 243.4684  0.98708859121702,13.741,0.0022124,0.98708859,341.8961,131.0764,243.4684
20083,RADUGA 1-1,EGO,23294.74654568,1 20083U 89048A   23294.74654568 -.00000047  00000-0  00000-0 0    13,2 20083  13.7406 341.8929 0022114 131.0524  36.1574  0.98709047121709,13.7406,0.0022114,0.98709047,341.8929,131.0524,36.1574
20083,RADUGA 1-1,EGO,23295.35311854,1 20083U 89048A   23295.35311854 -.00000064  00000-0  00000-0 0    18,2 20083  13.7400 341.8884 0022106 131.0530 251.7109  0.98709295121716,13.74,0.0022106,0.98709295,341.8884,131.053,251.7109
20083,RADUGA 1-1,EGO,23296.32076766,1 20083U 89048A   23296.32076766 -.00000092  00000-0  00000-0 0    17,2 20083  13.7390 341.8813 0022095 131.0408 235.5920  0.98709690121728,13.739,0.0022095,0.9870969,341.8813,131.0408,235.592
20083,RADUGA 1-1,EGO,23297.32267715,1 20083U 89048A   23297.32267715 -.00000123  00000-0  00000-0 0    19,2 20083  13.7380 341.8740 0022091 131.0390 231.6394  0.98710094121735,13.738,0.0022091,0.98710094,341.874,131.039,231.6394
20083,RADUGA 1-1,EGO,23298.42553542,1 20083U 89048A   23298.42553542 -.00000156  00000-0  00000-0 0    13,2 20083  13.7369 341.8660 0022082 131.0360 263.5638  0.98710515121744,13.7369,0.0022082,0.98710515,341.866,131.036,263.5638
20083,RADUGA 1-1,EGO,23299.45188528,1 20083U 89048A   23299.45188528 -.00000186  00000-0  00000-0 0    18,2 20083  13.7358 341.8585 0022081 131.0440 268.2898  0.98710854121753,13.7358,0.0022081,0.98710854,341.8585,131.044,268.2898
20083,RADUGA 1-1,EGO,23300.32843807,1 20083U 89048A   23300.32843807 -.00000209  00000-0  00000-0 0    11,2 20083  13.7349 341.8522 0022080 131.0507 219.7848  0.98711100121758,13.7349,0.002208,0.987111,341.8522,131.0507,219.7848
20083,RADUGA 1-1,EGO,23301.42060772,1 20083U 89048A   23301.42060772 -.00000233  00000-0  00000-0 0    12,2 20083  13.7338 341.8442 0022087 131.0750 247.8865  0.98711314121774,13.7338,0.0022087,0.98711314,341.8442,131.075,247.8865
20083,RADUGA 1-1,EGO,23302.45741837,1 20083U 89048A   23302.45741837 -.00000251  00000-0  00000-0 0    14,2 20083  13.7327 341.8368 0022094 131.1084 256.3064  0.98711420121783,13.7327,0.0022094,0.9871142,341.8368,131.1084,256.3064
20083,RADUGA 1-1,EGO,23303.46976397,1 20083U 89048A   23303.46976397 -.00000264  00000-0  00000-0 0    11,2 20083  13.7316 341.8294 0022094 131.1446 256.0299  0.98711441121792,13.7316,0.0022094,0.98711441,341.8294,131.1446,256.0299
20083,RADUGA 1-1,EGO,23304.46415869,1 20083U 89048A   23304.46415869 -.00000270  00000-0  00000-0 0    11,2 20083  13.7306 341.8223 0022101 131.1830 249.3719  0.98711371121805,13.7306,0.0022101,0.98711371,341.8223,131.183,249.3719
20083,RADUGA 1-1,EGO,23305.52362616,1 20083U 89048A   23305.52362616 -.00000271  00000-0  00000-0 0    11,2 20083  13.7295 341.8146 0022099 131.2423 265.8174  0.98711192121811,13.7295,0.0022099,0.98711192,341.8146,131.2423,265.8174
20083,RADUGA 1-1,EGO,23306.43984809,1 20083U 89048A   23306.43984809 -.00000266  00000-0  00000-0 0    10,2 20083  13.7285 341.8080 0022086 131.2800 231.3781  0.98710951121827,13.7285,0.0022086,0.98710951,341.808,131.28,231.3781
20083,RADUGA 1-1,EGO,23307.48473399,1 20083U 89048A   23307.48473399 -.00000254  00000-0  00000-0 0    10,2 20083  13.7274 341.8005 0022076 131.3409 242.6378  0.98710593121837,13.7274,0.0022076,0.98710593,341.8005,131.3409,242.6378
20083,RADUGA 1-1,EGO,23307.91429122,1 20083U 89048A   23307.91429122 -.00000246  00000-0  00000+0 0  1159,2 20083  13.7269 341.7975 0022063 131.3798  35.2502  0.98710428121824,13.7269,0.0022063,0.98710428,341.7975,131.3798,35.2502
20083,RADUGA 1-1,EGO,23308.48660341,1 20083U 89048A   23308.48660341 -.00000236  00000-0  00000-0 0    16,2 20083  13.7263 341.7933 0022059 131.3946 238.6170  0.98710193121843,13.7263,0.0022059,0.98710193,341.7933,131.3946,238.617
20083,RADUGA 1-1,EGO,23308.97966062,1 20083U 89048A   23308.97966062 -.00000225  00000-0  00000-0 0    17,2 20083  13.7258 341.7898 0022043 131.4320  53.7958  0.98709969121846,13.7258,0.0022043,0.98709969,341.7898,131.432,53.7958
20083,RADUGA 1-1,EGO,23309.45257699,1 20083U 89048A   23309.45257699 -.00000214  00000-0  00000-0 0    18,2 20083  13.7253 341.7864 0022038 131.4437 221.8427  0.98709753121847,13.7253,0.0022038,0.98709753,341.7864,131.4437,221.8427
20083,RADUGA 1-1,EGO,23310.98521703,1 20083U 89048A   23310.98521703 -.00000171  00000-0  00000-0 0    10,2 20083  13.7236 341.7755 0021997 131.5271  46.4048  0.98708983121863,13.7236,0.0021997,0.98708983,341.7755,131.5271,46.4048
20083,RADUGA 1-1,EGO,23312.49406470,1 20083U 89048A   23312.49406470 -.00000123  00000-0  00000-0 0    18,2 20083  13.7220 341.7649 0021958 131.5867 222.5326  0.98708252121872,13.722,0.0021958,0.98708252,341.7649,131.5867,222.5326
20083,RADUGA 1-1,EGO,23313.01368789,1 20083U 89048A   23313.01368789 -.00000106  00000-0  00000+0 0  1175,2 20083  13.7214 341.7612 0021946 131.6026  47.1706  0.98708017121872,13.7214,0.0021946,0.98708017,341.7612,131.6026,47.1706
20083,RADUGA 1-1,EGO,23313.56722392,1 20083U 89048A   23313.56722392 -.00000088  00000-0  00000-0 0    11,2 20083  13.7208 341.7573 0021928 131.6239 243.8530  0.98707764121897,13.7208,0.0021928,0.98707764,341.7573,131.6239,243.853
